CCSDS_OMM_VERS = 2.0
CREATION_DATE  = 
ORIGINATOR     = 

OBJECT_NAME    = DELTA 2 R/B(1)
OBJECT_ID      = 1990-008B
CENTER_NAME    = EARTH
REF_FRAME      = TEME
TIME_SYSTEM    = UTC
MEAN_ELEMENT_THEORY = SGP/SGP4

EPOCH          = 2025-12-31T00:37:42.194784
MEAN_MOTION    = 15.46942304
ECCENTRICITY   = .01073276
INCLINATION    = 35.6062
RA_OF_ASC_NODE = 262.3093
ARG_OF_PERICENTER = 344.1232
MEAN_ANOMALY   = 15.6150

EPHEMERIS_TYPE = 0
CLASSIFICATION_TYPE = U
NORAD_CAT_ID   = 20453
ELEMENT_SET_NO = 999
REV_AT_EPOCH   = 91546
BSTAR          = .10991142E-2
MEAN_MOTION_DOT = .7234E-3
MEAN_MOTION_DDOT = 0

CCSDS_OMM_VERS = 2.0
CREATION_DATE  = 
ORIGINATOR     = 

OBJECT_NAME    = COSMOS 2058
OBJECT_ID      = 1990-010A
CENTER_NAME    = EARTH
REF_FRAME      = TEME
TIME_SYSTEM    = UTC
MEAN_ELEMENT_THEORY = SGP/SGP4

EPOCH          = 2025-12-31T08:55:44.125536
MEAN_MOTION    = 15.10674319
ECCENTRICITY   = .00099376
INCLINATION    = 82.4715
RA_OF_ASC_NODE = 114.7048
ARG_OF_PERICENTER = 205.0039
MEAN_ANOMALY   = 155.0711

EPHEMERIS_TYPE = 0
CLASSIFICATION_TYPE = U
NORAD_CAT_ID   = 20465
ELEMENT_SET_NO = 999
REV_AT_EPOCH   = 93192
BSTAR          = .44882072E-3
MEAN_MOTION_DOT = .7463E-4
MEAN_MOTION_DDOT = 0

CCSDS_OMM_VERS = 2.0
CREATION_DATE  = 
ORIGINATOR     = 

OBJECT_NAME    = SL-14 R/B
OBJECT_ID      = 1990-010B
CENTER_NAME    = EARTH
REF_FRAME      = TEME
TIME_SYSTEM    = UTC
MEAN_ELEMENT_THEORY = SGP/SGP4

EPOCH          = 2025-12-31T15:09:36.764064
MEAN_MOTION    = 14.83492841
ECCENTRICITY   = .00202744
INCLINATION    = 82.5029
RA_OF_ASC_NODE = 331.3034
ARG_OF_PERICENTER = 159.8743
MEAN_ANOMALY   = 200.3276

EPHEMERIS_TYPE = 0
CLASSIFICATION_TYPE = U
NORAD_CAT_ID   = 20466
ELEMENT_SET_NO = 999
REV_AT_EPOCH   = 91839
BSTAR          = .10724291E-3
MEAN_MOTION_DOT = .908E-5
MEAN_MOTION_DDOT = 0

CCSDS_OMM_VERS = 2.0
CREATION_DATE  = 
ORIGINATOR     = 

OBJECT_NAME    = SL-14 R/B
OBJECT_ID      = 1990-018B
CENTER_NAME    = EARTH
REF_FRAME      = TEME
TIME_SYSTEM    = UTC
MEAN_ELEMENT_THEORY = SGP/SGP4

EPOCH          = 2025-12-31T07:32:01.404960
MEAN_MOTION    = 14.82069371
ECCENTRICITY   = .00154534
INCLINATION    = 82.5221
RA_OF_ASC_NODE = 287.0056
ARG_OF_PERICENTER = 321.5280
MEAN_ANOMALY   = 38.4831

EPHEMERIS_TYPE = 0
CLASSIFICATION_TYPE = U
NORAD_CAT_ID   = 20511
ELEMENT_SET_NO = 999
REV_AT_EPOCH   = 91245
BSTAR          = .10934479E-3
MEAN_MOTION_DOT = .893E-5
MEAN_MOTION_DDOT = 0

CCSDS_OMM_VERS = 2.0
CREATION_DATE  = 
ORIGINATOR     = 

OBJECT_NAME    = HST
OBJECT_ID      = 1990-037B
CENTER_NAME    = EARTH
REF_FRAME      = TEME
TIME_SYSTEM    = UTC
MEAN_ELEMENT_THEORY = SGP/SGP4

EPOCH          = 2025-12-31T11:16:16.625568
MEAN_MOTION    = 15.28310198
ECCENTRICITY   = .00025881
INCLINATION    = 28.4654
RA_OF_ASC_NODE = 144.9753
ARG_OF_PERICENTER = 81.6509
MEAN_ANOMALY   = 278.4380

EPHEMERIS_TYPE = 0
CLASSIFICATION_TYPE = U
NORAD_CAT_ID   = 20580
ELEMENT_SET_NO = 999
REV_AT_EPOCH   = 76286
BSTAR          = .35944586E-3
MEAN_MOTION_DOT = .10435E-3
MEAN_MOTION_DDOT = 0

CCSDS_OMM_VERS = 2.0
CREATION_DATE  = 
ORIGINATOR     = 

OBJECT_NAME    = SL-16 R/B
OBJECT_ID      = 1990-046B
CENTER_NAME    = EARTH
REF_FRAME      = TEME
TIME_SYSTEM    = UTC
MEAN_ELEMENT_THEORY = SGP/SGP4

EPOCH          = 2025-12-31T14:53:57.728256
MEAN_MOTION    = 14.14998782
ECCENTRICITY   = .00125919
INCLINATION    = 70.9993
RA_OF_ASC_NODE = 80.8705
ARG_OF_PERICENTER = 41.3245
MEAN_ANOMALY   = 318.8828

EPHEMERIS_TYPE = 0
CLASSIFICATION_TYPE = U
NORAD_CAT_ID   = 20625
ELEMENT_SET_NO = 999
REV_AT_EPOCH   = 83876
BSTAR          = .1378716E-3
MEAN_MOTION_DOT = .22E-5
MEAN_MOTION_DDOT = 0

CCSDS_OMM_VERS = 2.0
CREATION_DATE  = 
ORIGINATOR     = 

OBJECT_NAME    = COSMOS 2084
OBJECT_ID      = 1990-055A
CENTER_NAME    = EARTH
REF_FRAME      = TEME
TIME_SYSTEM    = UTC
MEAN_ELEMENT_THEORY = SGP/SGP4

EPOCH          = 2025-12-31T13:40:34.398048
MEAN_MOTION    = 15.05143358
ECCENTRICITY   = .00286371
INCLINATION    = 62.7892
RA_OF_ASC_NODE = 207.8273
ARG_OF_PERICENTER = 177.4020
MEAN_ANOMALY   = 182.7234

EPHEMERIS_TYPE = 0
CLASSIFICATION_TYPE = U
NORAD_CAT_ID   = 20663
ELEMENT_SET_NO = 999
REV_AT_EPOCH   = 92606
BSTAR          = .36291859E-3
MEAN_MOTION_DOT = .504E-4
MEAN_MOTION_DDOT = 0

CCSDS_OMM_VERS = 2.0
CREATION_DATE  = 
ORIGINATOR     = 

OBJECT_NAME    = SL-6 R/B(2)
OBJECT_ID      = 1990-055D
CENTER_NAME    = EARTH
REF_FRAME      = TEME
TIME_SYSTEM    = UTC
MEAN_ELEMENT_THEORY = SGP/SGP4

EPOCH          = 2025-12-31T14:15:44.586720
MEAN_MOTION    = 15.03182241
ECCENTRICITY   = .00150065
INCLINATION    = 62.7835
RA_OF_ASC_NODE = 125.3462
ARG_OF_PERICENTER = 321.0565
MEAN_ANOMALY   = 38.9452

EPHEMERIS_TYPE = 0
CLASSIFICATION_TYPE = U
NORAD_CAT_ID   = 20666
ELEMENT_SET_NO = 999
REV_AT_EPOCH   = 92795
BSTAR          = .35542431E-3
MEAN_MOTION_DOT = .4645E-4
MEAN_MOTION_DDOT = 0

CCSDS_OMM_VERS = 2.0
CREATION_DATE  = 
ORIGINATOR     = 

OBJECT_NAME    = SL-8 R/B
OBJECT_ID      = 1990-078B
CENTER_NAME    = EARTH
REF_FRAME      = TEME
TIME_SYSTEM    = UTC
MEAN_ELEMENT_THEORY = SGP/SGP4

EPOCH          = 2025-12-31T09:07:02.419968
MEAN_MOTION    = 14.86605615
ECCENTRICITY   = .03694872
INCLINATION    = 82.9055
RA_OF_ASC_NODE = 312.6169
ARG_OF_PERICENTER = 243.1157
MEAN_ANOMALY   = 113.1858

EPHEMERIS_TYPE = 0
CLASSIFICATION_TYPE = U
NORAD_CAT_ID   = 20775
ELEMENT_SET_NO = 999
REV_AT_EPOCH   = 79914
BSTAR          = .59344528E-3
MEAN_MOTION_DOT = .19304E-3
MEAN_MOTION_DDOT = 0

CCSDS_OMM_VERS = 2.0
CREATION_DATE  = 
ORIGINATOR     = 

OBJECT_NAME    = SL-8 R/B
OBJECT_ID      = 1991-006B
CENTER_NAME    = EARTH
REF_FRAME      = TEME
TIME_SYSTEM    = UTC
MEAN_ELEMENT_THEORY = SGP/SGP4

EPOCH          = 2025-12-31T15:14:31.082208
MEAN_MOTION    = 13.77492807
ECCENTRICITY   = .00215301
INCLINATION    = 82.9409
RA_OF_ASC_NODE = 220.6578
ARG_OF_PERICENTER = 223.8212
MEAN_ANOMALY   = 190.9276

EPHEMERIS_TYPE = 0
CLASSIFICATION_TYPE = U
NORAD_CAT_ID   = 21088
ELEMENT_SET_NO = 999
REV_AT_EPOCH   = 75470
BSTAR          = .42411787E-4
MEAN_MOTION_DOT = .57E-6
MEAN_MOTION_DDOT = 0

CCSDS_OMM_VERS = 2.0
CREATION_DATE  = 
ORIGINATOR     = 

OBJECT_NAME    = OKEAN-3
OBJECT_ID      = 1991-039A
CENTER_NAME    = EARTH
REF_FRAME      = TEME
TIME_SYSTEM    = UTC
MEAN_ELEMENT_THEORY = SGP/SGP4

EPOCH          = 2025-12-31T13:47:43.629792
MEAN_MOTION    = 15.04246894
ECCENTRICITY   = .00138039
INCLINATION    = 82.5160
RA_OF_ASC_NODE = 42.8137
ARG_OF_PERICENTER = 195.4585
MEAN_ANOMALY   = 164.6222

EPHEMERIS_TYPE = 0
CLASSIFICATION_TYPE = U
NORAD_CAT_ID   = 21397
ELEMENT_SET_NO = 999
REV_AT_EPOCH   = 85479
BSTAR          = .38486702E-3
MEAN_MOTION_DOT = .5389E-4
MEAN_MOTION_DDOT = 0

CCSDS_OMM_VERS = 2.0
CREATION_DATE  = 
ORIGINATOR     = 

OBJECT_NAME    = COSMOS 2151
OBJECT_ID      = 1991-042A
CENTER_NAME    = EARTH
REF_FRAME      = TEME
TIME_SYSTEM    = UTC
MEAN_ELEMENT_THEORY = SGP/SGP4

EPOCH          = 2025-12-31T13:43:30.368928
MEAN_MOTION    = 14.99776158
ECCENTRICITY   = .0011293
INCLINATION    = 82.4967
RA_OF_ASC_NODE = 149.3545
ARG_OF_PERICENTER = 291.6612
MEAN_ANOMALY   = 68.3409

EPHEMERIS_TYPE = 0
CLASSIFICATION_TYPE = U
NORAD_CAT_ID   = 21422
ELEMENT_SET_NO = 999
REV_AT_EPOCH   = 85298
BSTAR          = .29607214E-3
MEAN_MOTION_DOT = .3689E-4
MEAN_MOTION_DDOT = 0

