DELTA 2 R/B(1)          
1 20453U 90008B   25365.02618281  .00072340  00000+0  10991-2 0  9997
2 20453  35.6062 262.3093 0107327 344.1232  15.6150 15.46942304915463
COSMOS 2058             
1 20465U 90010A   25365.37203849  .00007463  00000+0  44882-3 0  9992
2 20465  82.4715 114.7048 0009937 205.0039 155.0711 15.10674319931929
SL-14 R/B               
1 20466U 90010B   25365.63167551  .00000908  00000+0  10724-3 0  9996
2 20466  82.5029 331.3034 0020274 159.8743 200.3276 14.83492841918399
SL-14 R/B               
1 20511U 90018B   25365.31390515  .00000893  00000+0  10934-3 0  9994
2 20511  82.5221 287.0056 0015453 321.5280  38.4831 14.82069371912457
HST                     
1 20580U 90037B   25365.46963687  .00010435  00000+0  35945-3 0  9995
2 20580  28.4654 144.9753 0002588  81.6509 278.4380 15.28310198762860
SL-16 R/B               
1 20625U 90046B   25365.62080704  .00000220  00000+0  13787-3 0  9994
2 20625  70.9993  80.8705 0012591  41.3245 318.8828 14.14998782838762
COSMOS 2084             
1 20663U 90055A   25365.56984257  .00005040  00000+0  36292-3 0  9996
2 20663  62.7892 207.8273 0028637 177.4020 182.7234 15.05143358926064
SL-6 R/B(2)             
1 20666U 90055D   25365.59426605  .00004645  00000+0  35542-3 0  9997
2 20666  62.7835 125.3462 0015006 321.0565  38.9452 15.03182241927950
SL-8 R/B                
1 20775U 90078B   25365.37988912  .00019304  00000+0  59345-3 0  9998
2 20775  82.9055 312.6169 0369487 243.1157 113.1858 14.86605615799149
SL-8 R/B                
1 21088U 91006B   25365.63508197  .00000057  00000+0  42412-4 0  9993
2 21088  82.9409 220.6578 0021530 223.8212 190.9276 13.77492807754709
OKEAN-3                 
1 21397U 91039A   25365.57481053  .00005389  00000+0  38487-3 0  9995
2 21397  82.5160  42.8137 0013803 195.4585 164.6222 15.04246894854792
COSMOS 2151             
1 21422U 91042A   25365.57187927  .00003689  00000+0  29607-3 0  9996
2 21422  82.4967 149.3545 0011293 291.6612  68.3409 14.99776158852982
